{"type": "FeatureCollection", "features": [{"type": "Feature", "properties": {"norad_id": 24876, "name": "GPS BIIR-2  (PRN 13)", "group": "gnss", "lat": -54.87726697218916, "lon": 0.323971745247634, "alt_km": 20421.94899117521, "timestamp": "2025-12-07T14:37:05.446815+00:00", "meta": {"OBJECT_NAME": "GPS BIIR-2  (PRN 13)", "OBJECT_ID": "1997-035A", "EPOCH": "2025-12-06T17:59:33.634176", "MEAN_MOTION": 2.00563487, "ECCENTRICITY": 0.00967167, "INCLINATION": 55.8924, "RA_OF_ASC_NODE": 106.1032, "ARG_OF_PERICENTER": 57.016, "MEAN_ANOMALY": 303.875, "EPHEMERIS_TYPE": 0, "CLASSIFICATION_TYPE": "U", "NORAD_CAT_ID": 24876, "ELEMENT_SET_NO": 999, "REV_AT_EPOCH": 20809, "BSTAR": 0, "MEAN_MOTION_DOT": 7e-08, "MEAN_MOTION_DDOT": 0}, "tle": {"line1": "1 24876U 97035A   25340.74969484  .00000007  00000+0  00000+0 0  9991", "line2": "2 24876  55.8924 106.1032 0096716  57.0160 303.8750  2.00563487208093"}}, "geometry": {"type": "Point", "coordinates": [0.323971745247634, -54.87726697218916]}}, {"type": "Feature", "properties": {"norad_id": 26360, "name": "GPS BIIR-4  (PRN 20)", "group": "gnss", "lat": -5.207357256275051, "lon": 23.410587247118762, "alt_km": 20221.54929224067, "timestamp": "2025-12-07T14:37:05.446883+00:00", "meta": {"OBJECT_NAME": "GPS BIIR-4  (PRN 20)", "OBJECT_ID": "2000-025A", "EPOCH": "2025-12-06T20:33:50.277888", "MEAN_MOTION": 2.00568054, "ECCENTRICITY": 0.00388292, "INCLINATION": 55.0417, "RA_OF_ASC_NODE": 27.0759, "ARG_OF_PERICENTER": 241.4315, "MEAN_ANOMALY": 288.6744, "EPHEMERIS_TYPE": 0, "CLASSIFICATION_TYPE": "U", "NORAD_CAT_ID": 26360, "ELEMENT_SET_NO": 999, "REV_AT_EPOCH": 18741, "BSTAR": 0, "MEAN_MOTION_DOT": -8e-07, "MEAN_MOTION_DDOT": 0}, "tle": {"line1": "1 26360U 00025A   25340.85683192 -.00000080  00000+0  00000+0 0  9997", "line2": "2 26360  55.0417  27.0759 0038829 241.4315 288.6744  2.00568054187411"}}, "geometry": {"type": "Point", "coordinates": [23.410587247118762, -5.207357256275051]}}, {"type": "Feature", "properties": {"norad_id": 26407, "name": "GPS BIIR-5  (PRN 22)", "group": "gnss", "lat": -9.366926541003236, "lon": 49.4408272337838, "alt_km": 20295.92951291863, "timestamp": "2025-12-07T14:37:05.446902+00:00", "meta": {"OBJECT_NAME": "GPS BIIR-5  (PRN 22)", "OBJECT_ID": "2000-040A", "EPOCH": "2025-12-06T20:27:51.667776", "MEAN_MOTION": 2.0056778, "ECCENTRICITY": 0.01263296, "INCLINATION": 54.8923, "RA_OF_ASC_NODE": 222.8032, "ARG_OF_PERICENTER": 301.6996, "MEAN_ANOMALY": 64.992, "EPHEMERIS_TYPE": 0, "CLASSIFICATION_TYPE": "U", "NORAD_CAT_ID": 26407, "ELEMENT_SET_NO": 999, "REV_AT_EPOCH": 18609, "BSTAR": 0, "MEAN_MOTION_DOT": 3.6e-07, "MEAN_MOTION_DDOT": 0}, "tle": {"line1": "1 26407U 00040A   25340.85268134  .00000036  00000+0  00000+0 0  9991", "line2": "2 26407  54.8923 222.8032 0126329 301.6996  64.9920  2.00567780186097"}}, "geometry": {"type": "Point", "coordinates": [49.4408272337838, -9.366926541003236]}}, {"type": "Feature", "properties": {"norad_id": 27663, "name": "GPS BIIR-8  (PRN 16)", "group": "gnss", "lat": -26.522383266260317, "lon": -157.91918269027946, "alt_km": 20143.482069012094, "timestamp": "2025-12-07T14:37:05.446918+00:00", "meta": {"OBJECT_NAME": "GPS BIIR-8  (PRN 16)", "OBJECT_ID": "2003-005A", "EPOCH": "2025-12-06T16:05:33.383328", "MEAN_MOTION": 2.00571142, "ECCENTRICITY": 0.01472147, "INCLINATION": 54.9248, "RA_OF_ASC_NODE": 222.6198, "ARG_OF_PERICENTER": 51.718, "MEAN_ANOMALY": 319.2598, "EPHEMERIS_TYPE": 0, "CLASSIFICATION_TYPE": "U", "NORAD_CAT_ID": 27663, "ELEMENT_SET_NO": 999, "REV_AT_EPOCH": 16745, "BSTAR": 0, "MEAN_MOTION_DOT": 3.9e-07, "MEAN_MOTION_DDOT": 0}, "tle": {"line1": "1 27663U 03005A   25340.67052527  .00000039  00000+0  00000+0 0  9990", "line2": "2 27663  54.9248 222.6198 0147214  51.7180 319.2598  2.00571142167451"}}, "geometry": {"type": "Point", "coordinates": [-157.91918269027946, -26.522383266260317]}}, {"type": "Feature", "properties": {"norad_id": 28190, "name": "GPS BIIR-11 (PRN 19)", "group": "gnss", "lat": 40.954997097199, "lon": 65.99505322688591, "alt_km": 19957.78706847185, "timestamp": "2025-12-07T14:37:05.446931+00:00", "meta": {"OBJECT_NAME": "GPS BIIR-11 (PRN 19)", "OBJECT_ID": "2004-009A", "EPOCH": "2025-12-06T01:17:13.122240", "MEAN_MOTION": 2.0056089, "ECCENTRICITY": 0.01082534, "INCLINATION": 54.9918, "RA_OF_ASC_NODE": 283.4884, "ARG_OF_PERICENTER": 167.5282, "MEAN_ANOMALY": 276.9875, "EPHEMERIS_TYPE": 0, "CLASSIFICATION_TYPE": "U", "NORAD_CAT_ID": 28190, "ELEMENT_SET_NO": 999, "REV_AT_EPOCH": 15907, "BSTAR": 0, "MEAN_MOTION_DOT": -3.9e-07, "MEAN_MOTION_DDOT": 0}, "tle": {"line1": "1 28190U 04009A   25340.05362410 -.00000039  00000+0  00000+0 0  9999", "line2": "2 28190  54.9918 283.4884 0108253 167.5282 276.9875  2.00560890159071"}}, "geometry": {"type": "Point", "coordinates": [65.99505322688591, 40.954997097199]}}, {"type": "Feature", "properties": {"norad_id": 28474, "name": "GPS BIIR-13 (PRN 02)", "group": "gnss", "lat": -4.910622098364354, "lon": 156.02194416184213, "alt_km": 20423.750329136175, "timestamp": "2025-12-07T14:37:05.446945+00:00", "meta": {"OBJECT_NAME": "GPS BIIR-13 (PRN 02)", "OBJECT_ID": "2004-045A", "EPOCH": "2025-12-05T20:20:11.876352", "MEAN_MOTION": 2.0056901, "ECCENTRICITY": 0.01706228, "INCLINATION": 55.2441, "RA_OF_ASC_NODE": 332.6831, "ARG_OF_PERICENTER": 308.9503, "MEAN_ANOMALY": 46.5475, "EPHEMERIS_TYPE": 0, "CLASSIFICATION_TYPE": "U", "NORAD_CAT_ID": 28474, "ELEMENT_SET_NO": 999, "REV_AT_EPOCH": 15454, "BSTAR": 0, "MEAN_MOTION_DOT": -7.7e-07, "MEAN_MOTION_DDOT": 0}, "tle": {"line1": "1 28474U 04045A   25339.84735968 -.00000077  00000+0  00000+0 0  9993", "line2": "2 28474  55.2441 332.6831 0170622 308.9503  46.5475  2.00569010154543"}}, "geometry": {"type": "Point", "coordinates": [156.02194416184213, -4.910622098364354]}}, {"type": "Feature", "properties": {"norad_id": 28874, "name": "GPS BIIRM-1 (PRN 17)", "group": "gnss", "lat": 27.58468748297542, "lon": 79.47764306259045, "alt_km": 20470.725076083167, "timestamp": "2025-12-07T14:37:05.446958+00:00", "meta": {"OBJECT_NAME": "GPS BIIRM-1 (PRN 17)", "OBJECT_ID": "2005-038A", "EPOCH": "2025-12-06T00:39:47.683008", "MEAN_MOTION": 2.00593123, "ECCENTRICITY": 0.01317527, "INCLINATION": 55.0379, "RA_OF_ASC_NODE": 280.9712, "ARG_OF_PERICENTER": 293.1135, "MEAN_ANOMALY": 151.2056, "EPHEMERIS_TYPE": 0, "CLASSIFICATION_TYPE": "U", "NORAD_CAT_ID": 28874, "ELEMENT_SET_NO": 999, "REV_AT_EPOCH": 14796, "BSTAR": 0, "MEAN_MOTION_DOT": -3.6e-07, "MEAN_MOTION_DDOT": 0}, "tle": {"line1": "1 28874U 05038A   25340.02763522 -.00000036  00000+0  00000+0 0  9994", "line2": "2 28874  55.0379 280.9712 0131752 293.1135 151.2056  2.00593123147964"}}, "geometry": {"type": "Point", "coordinates": [79.47764306259045, 27.58468748297542]}}, {"type": "Feature", "properties": {"norad_id": 28899, "name": "INMARSAT 4-F2 (SOUTHPAN/PRN 122)", "group": "gnss", "lat": 2.8484391679705747, "lon": 79.29809877184944, "alt_km": 35801.06773117798, "timestamp": "2025-12-07T14:37:05.446973+00:00", "meta": {"OBJECT_NAME": "INMARSAT 4-F2 (SOUTHPAN/PRN 122)", "OBJECT_ID": "2005-044A", "EPOCH": "2025-12-06T14:20:53.154816", "MEAN_MOTION": 1.00270597, "ECCENTRICITY": 0.00035348, "INCLINATION": 4.8442, "RA_OF_ASC_NODE": 43.674, "ARG_OF_PERICENTER": 210.8214, "MEAN_ANOMALY": 179.8651, "EPHEMERIS_TYPE": 0, "CLASSIFICATION_TYPE": "U", "NORAD_CAT_ID": 28899, "ELEMENT_SET_NO": 999, "REV_AT_EPOCH": 7359, "BSTAR": 0, "MEAN_MOTION_DOT": -2.57e-06, "MEAN_MOTION_DDOT": 0}, "tle": {"line1": "1 28899U 05044A   25340.59783744 -.00000257  00000+0  00000+0 0  9993", "line2": "2 28899   4.8442  43.6740 0003534 210.8214 179.8651  1.00270597 73599"}}, "geometry": {"type": "Point", "coordinates": [79.29809877184944, 2.8484391679705747]}}, {"type": "Feature", "properties": {"norad_id": 29486, "name": "GPS BIIRM-2 (PRN 31)", "group": "gnss", "lat": 38.54903441364359, "lon": -166.6620892199228, "alt_km": 19893.384994338645, "timestamp": "2025-12-07T14:37:05.446987+00:00", "meta": {"OBJECT_NAME": "GPS BIIRM-2 (PRN 31)", "OBJECT_ID": "2006-042A", "EPOCH": "2025-12-06T13:25:33.106944", "MEAN_MOTION": 2.00554295, "ECCENTRICITY": 0.01073619, "INCLINATION": 54.6932, "RA_OF_ASC_NODE": 158.9861, "ARG_OF_PERICENTER": 51.8104, "MEAN_ANOMALY": 320.1566, "EPHEMERIS_TYPE": 0, "CLASSIFICATION_TYPE": "U", "NORAD_CAT_ID": 29486, "ELEMENT_SET_NO": 999, "REV_AT_EPOCH": 14053, "BSTAR": 0, "MEAN_MOTION_DOT": 6.3e-07, "MEAN_MOTION_DDOT": 0}, "tle": {"line1": "1 29486U 06042A   25340.55941096  .00000063  00000+0  00000+0 0  9991", "line2": "2 29486  54.6932 158.9861 0107361  51.8104 320.1566  2.00554295140533"}}, "geometry": {"type": "Point", "coordinates": [-166.6620892199228, 38.54903441364359]}}, {"type": "Feature", "properties": {"norad_id": 29601, "name": "GPS BIIRM-3 (PRN 12)", "group": "gnss", "lat": 51.36932322592626, "lon": -19.67254047847849, "alt_km": 19956.68917174879, "timestamp": "2025-12-07T14:37:05.446999+00:00", "meta": {"OBJECT_NAME": "GPS BIIRM-3 (PRN 12)", "OBJECT_ID": "2006-052A", "EPOCH": "2025-12-05T23:11:48.178176", "MEAN_MOTION": 2.00572974, "ECCENTRICITY": 0.00876305, "INCLINATION": 54.9719, "RA_OF_ASC_NODE": 221.6671, "ARG_OF_PERICENTER": 87.3693, "MEAN_ANOMALY": 273.7261, "EPHEMERIS_TYPE": 0, "CLASSIFICATION_TYPE": "U", "NORAD_CAT_ID": 29601, "ELEMENT_SET_NO": 999, "REV_AT_EPOCH": 13953, "BSTAR": 0, "MEAN_MOTION_DOT": 4.9e-07, "MEAN_MOTION_DDOT": 0}, "tle": {"line1": "1 29601U 06052A   25339.96652984  .00000049  00000+0  00000+0 0  9993", "line2": "2 29601  54.9719 221.6671 0087630  87.3693 273.7261  2.00572974139535"}}, "geometry": {"type": "Point", "coordinates": [-19.67254047847849, 51.36932322592626]}}]}